{
  "type": "FeatureCollection",
  "features": [
    {
      "type": "Feature",
      "geometry": {
        "type": "Point",
        "coordinates": [
          -53.70668255775382,
          -27.69959716427769
        ]
      },
      "properties": {
        "nome": "trf_6_4910a",
        "kVA": 30.0,
        "loading_pct": 35.9,
        "status": "normal",
        "bus_mt": "9051",
        "bus_bt": "et6_4910",
        "tipo_problema": "sobrecarga_trafo"
      }
    },
    {
      "type": "Feature",
      "geometry": {
        "type": "Point",
        "coordinates": [
          -53.60001616601323,
          -27.645649396002796
        ]
      },
      "properties": {
        "nome": "192191",
        "tipo_problema": "sobretensao_bt",
        "descricao": "Vmax > 1.050 pu — violação PRODIST Tabela 5"
      }
    },
    {
      "type": "Feature",
      "geometry": {
        "type": "Point",
        "coordinates": [
          -53.595723160495425,
          -27.64791331514732
        ]
      },
      "properties": {
        "nome": "610711",
        "tipo_problema": "sobretensao_bt",
        "descricao": "Vmax > 1.050 pu — violação PRODIST Tabela 5"
      }
    },
    {
      "type": "Feature",
      "geometry": {
        "type": "Point",
        "coordinates": [
          -53.59728512011219,
          -27.64969755569757
        ]
      },
      "properties": {
        "nome": "et16_3908",
        "tipo_problema": "sobretensao_bt",
        "descricao": "Vmax > 1.050 pu — violação PRODIST Tabela 5"
      }
    },
    {
      "type": "Feature",
      "geometry": {
        "type": "Point",
        "coordinates": [
          -53.59728512011219,
          -27.64969755569757
        ]
      },
      "properties": {
        "nome": "611471",
        "tipo_problema": "sobretensao_bt",
        "descricao": "Vmax > 1.050 pu — violação PRODIST Tabela 5"
      }
    },
    {
      "type": "Feature",
      "geometry": {
        "type": "Point",
        "coordinates": [
          -53.596523966307984,
          -27.64835845527847
        ]
      },
      "properties": {
        "nome": "610701",
        "tipo_problema": "sobretensao_bt",
        "descricao": "Vmax > 1.050 pu — violação PRODIST Tabela 5"
      }
    },
    {
      "type": "Feature",
      "geometry": {
        "type": "Point",
        "coordinates": [
          -53.59728512011219,
          -27.64969755569757
        ]
      },
      "properties": {
        "nome": "611451",
        "tipo_problema": "sobretensao_bt",
        "descricao": "Vmax > 1.050 pu — violação PRODIST Tabela 5"
      }
    },
    {
      "type": "Feature",
      "geometry": {
        "type": "Point",
        "coordinates": [
          -53.597760691502685,
          -27.650527726173607
        ]
      },
      "properties": {
        "nome": "611461",
        "tipo_problema": "sobretensao_bt",
        "descricao": "Vmax > 1.050 pu — violação PRODIST Tabela 5"
      }
    },
    {
      "type": "Feature",
      "geometry": {
        "type": "Point",
        "coordinates": [
          -53.60001616601323,
          -27.645649396002796
        ]
      },
      "properties": {
        "nome": "191601",
        "tipo_problema": "sobretensao_bt",
        "descricao": "Vmax > 1.050 pu — violação PRODIST Tabela 5"
      }
    },
    {
      "type": "Feature",
      "geometry": {
        "type": "Point",
        "coordinates": [
          -53.600565283960634,
          -27.646162392680253
        ]
      },
      "properties": {
        "nome": "192181",
        "tipo_problema": "sobretensao_bt",
        "descricao": "Vmax > 1.050 pu — violação PRODIST Tabela 5"
      }
    },
    {
      "type": "Feature",
      "geometry": {
        "type": "Point",
        "coordinates": [
          -53.59954870920552,
          -27.645161932876874
        ]
      },
      "properties": {
        "nome": "191591",
        "tipo_problema": "sobretensao_bt",
        "descricao": "Vmax > 1.050 pu — violação PRODIST Tabela 5"
      }
    },
    {
      "type": "Feature",
      "geometry": {
        "type": "Point",
        "coordinates": [
          -53.598046275715035,
          -27.646766493378948
        ]
      },
      "properties": {
        "nome": "611441",
        "tipo_problema": "sobretensao_bt",
        "descricao": "Vmax > 1.050 pu — violação PRODIST Tabela 5"
      }
    },
    {
      "type": "Feature",
      "geometry": {
        "type": "Point",
        "coordinates": [
          -53.598424380380834,
          -27.64637990990485
        ]
      },
      "properties": {
        "nome": "752641",
        "tipo_problema": "sobretensao_bt",
        "descricao": "Vmax > 1.050 pu — violação PRODIST Tabela 5"
      }
    },
    {
      "type": "Feature",
      "geometry": {
        "type": "Point",
        "coordinates": [
          -53.5989068702558,
          -27.6458687001803
        ]
      },
      "properties": {
        "nome": "752651",
        "tipo_problema": "sobretensao_bt",
        "descricao": "Vmax > 1.050 pu — violação PRODIST Tabela 5"
      }
    },
    {
      "type": "Feature",
      "geometry": {
        "type": "Point",
        "coordinates": [
          -53.59692564849985,
          -27.64906370002967
        ]
      },
      "properties": {
        "nome": "bt611442",
        "tipo_problema": "sobretensao_bt",
        "descricao": "Vmax > 1.050 pu — violação PRODIST Tabela 5"
      }
    },
    {
      "type": "Feature",
      "geometry": {
        "type": "Point",
        "coordinates": [
          -53.596523966307984,
          -27.64835845527847
        ]
      },
      "properties": {
        "nome": "bt611451",
        "tipo_problema": "sobretensao_bt",
        "descricao": "Vmax > 1.050 pu — violação PRODIST Tabela 5"
      }
    },
    {
      "type": "Feature",
      "geometry": {
        "type": "Point",
        "coordinates": [
          -53.59692564849985,
          -27.64906370002967
        ]
      },
      "properties": {
        "nome": "bt611461",
        "tipo_problema": "sobretensao_bt",
        "descricao": "Vmax > 1.050 pu — violação PRODIST Tabela 5"
      }
    },
    {
      "type": "Feature",
      "geometry": {
        "type": "Point",
        "coordinates": [
          -53.59335880326614,
          -27.64475461463371
        ]
      },
      "properties": {
        "nome": "bt17981",
        "tipo_problema": "sobretensao_bt",
        "descricao": "Vmax > 1.050 pu — violação PRODIST Tabela 5"
      }
    },
    {
      "type": "Feature",
      "geometry": {
        "type": "Point",
        "coordinates": [
          -53.58674977098508,
          -27.644204833885908
        ]
      },
      "properties": {
        "nome": "bt790071",
        "tipo_problema": "sobretensao_bt",
        "descricao": "Vmax > 1.050 pu — violação PRODIST Tabela 5"
      }
    }
  ]
}